{
  "norad_id": 65317,
  "name": "NAOS",
  "history": [
    {
      "epoch": "2026-04-10T11:49:45.215616Z",
      "apogee_km": 450.84621964725466,
      "perigee_km": 448.92891034940203,
      "latitude_deg": -9.203199649553674e-06,
      "longitude_deg": 160.8219626196529,
      "height_km": 452.3051722657329,
      "semi_major_axis_km": 6828.024564998328,
      "eccentricity": 0.0001404,
      "inclination_deg": 97.2054,
      "raan_deg": 176.9863,
      "arg_perigee_deg": 42.9099,
      "mean_anomaly_deg": 317.2256,
      "mean_motion_rev_day": 15.38721952
    },
    {
      "epoch": "2026-04-11T09:40:46.734816Z",
      "apogee_km": 450.7426277862687,
      "perigee_km": 448.92502195268935,
      "latitude_deg": 1.938146044943532e-05,
      "longitude_deg": -166.93683775665312,
      "height_km": 452.27397603498895,
      "semi_major_axis_km": 6827.970824869479,
      "eccentricity": 0.0001331,
      "inclination_deg": 97.2054,
      "raan_deg": 177.8812,
      "arg_perigee_deg": 41.5867,
      "mean_anomaly_deg": 318.548,
      "mean_motion_rev_day": 15.38740118
    },
    {
      "epoch": "2026-04-13T05:23:08.709504Z",
      "apogee_km": 451.6888578080943,
      "perigee_km": 449.0668446755135,
      "latitude_deg": -8.667976401703466e-05,
      "longitude_deg": -102.5337328420927,
      "height_km": 452.26429129912606,
      "semi_major_axis_km": 6828.514851241804,
      "eccentricity": 0.00019199,
      "inclination_deg": 97.2057,
      "raan_deg": 179.6708,
      "arg_perigee_deg": 19.8059,
      "mean_anomaly_deg": 340.326,
      "mean_motion_rev_day": 15.38556235
    },
    {
      "epoch": "2026-04-14T20:24:30.435264Z",
      "apogee_km": 451.50413102218135,
      "perigee_km": 449.1073476206784,
      "latitude_deg": -6.852212644457392e-05,
      "longitude_deg": 32.12103720636481,
      "height_km": 452.26729079756217,
      "semi_major_axis_km": 6828.442739321429,
      "eccentricity": 0.0001755,
      "inclination_deg": 97.2058,
      "raan_deg": 181.2687,
      "arg_perigee_deg": 14.7868,
      "mean_anomaly_deg": 345.3428,
      "mean_motion_rev_day": 15.38580607
    },
    {
      "epoch": "2026-04-15T19:49:18.624864Z",
      "apogee_km": 451.404185735365,
      "perigee_km": 449.1439816666598,
      "latitude_deg": 2.0667670705515192e-05,
      "longitude_deg": 40.91738427609121,
      "height_km": 452.28784880721327,
      "semi_major_axis_km": 6828.411083701012,
      "eccentricity": 0.0001655,
      "inclination_deg": 97.2058,
      "raan_deg": 182.2274,
      "arg_perigee_deg": 11.6861,
      "mean_anomaly_deg": 348.4423,
      "mean_motion_rev_day": 15.38591306
    },
    {
      "epoch": "2026-04-16T19:14:06.279648Z",
      "apogee_km": 451.3133513877365,
      "perigee_km": 449.17060606421273,
      "latitude_deg": -2.166419130037453e-05,
      "longitude_deg": 49.715782367708734,
      "height_km": 452.30152019766206,
      "semi_major_axis_km": 6828.378978725975,
      "eccentricity": 0.0001569,
      "inclination_deg": 97.2056,
      "raan_deg": 183.1859,
      "arg_perigee_deg": 7.9339,
      "mean_anomaly_deg": 352.1931,
      "mean_motion_rev_day": 15.38602157
    },
    {
      "epoch": "2026-04-17T21:46:11.548704Z",
      "apogee_km": 451.20199284387127,
      "perigee_km": 449.1970566734717,
      "latitude_deg": -2.8240240151257974e-05,
      "longitude_deg": 11.690784830861293,
      "height_km": 452.32041835635397,
      "semi_major_axis_km": 6828.336524758672,
      "eccentricity": 0.00014681,
      "inclination_deg": 97.2054,
      "raan_deg": 184.2726,
      "arg_perigee_deg": 4.0416,
      "mean_anomaly_deg": 356.0841,
      "mean_motion_rev_day": 15.38616506
    },
    {
      "epoch": "2026-04-18T19:37:20.117280Z",
      "apogee_km": 451.6531979913825,
      "perigee_km": 449.2631896735411,
      "latitude_deg": 1.4226121031694065e-06,
      "longitude_deg": 43.902033438452605,
      "height_km": 452.40481906952294,
      "semi_major_axis_km": 6828.5951938324615,
      "eccentricity": 0.000175,
      "inclination_deg": 97.2052,
      "raan_deg": 185.167,
      "arg_perigee_deg": 10.823,
      "mean_anomaly_deg": 349.3053,
      "mean_motion_rev_day": 15.38529082
    },
    {
      "epoch": "2026-04-19T19:02:10.879872Z",
      "apogee_km": 451.5223745706189,
      "perigee_km": 449.28534458502145,
      "latitude_deg": -6.88261530954261e-05,
      "longitude_deg": 52.68804752247849,
      "height_km": 452.4139226162601,
      "semi_major_axis_km": 6828.54085957782,
      "eccentricity": 0.0001638,
      "inclination_deg": 97.2048,
      "raan_deg": 186.1261,
      "arg_perigee_deg": 6.8322,
      "mean_anomaly_deg": 353.2945,
      "mean_motion_rev_day": 15.38547445
    },
    {
      "epoch": "2026-04-20T12:12:23.503968Z",
      "apogee_km": 451.44331784905444,
      "perigee_km": 449.293158119719,
      "latitude_deg": 8.316453102534896e-05,
      "longitude_deg": 155.1333726673647,
      "height_km": 452.4175215215689,
      "semi_major_axis_km": 6828.505237984386,
      "eccentricity": 0.00015744,
      "inclination_deg": 97.2046,
      "raan_deg": 186.8292,
      "arg_perigee_deg": 4.7022,
      "mean_anomaly_deg": 355.4239,
      "mean_motion_rev_day": 15.38559484
    },
    {
      "epoch": "2026-04-21T19:25:28.653024Z",
      "apogee_km": 451.28212184446784,
      "perigee_km": 449.29778097238886,
      "latitude_deg": 6.621956325314619e-05,
      "longitude_deg": 46.8582355067528,
      "height_km": 452.4188203981674,
      "semi_major_axis_km": 6828.426951408428,
      "eccentricity": 0.0001453,
      "inclination_deg": 97.2042,
      "raan_deg": 188.1076,
      "arg_perigee_deg": 359.6287,
      "mean_anomaly_deg": 0.4958,
      "mean_motion_rev_day": 15.38585943
    },
    {
      "epoch": "2026-04-22T20:23:55.540032Z",
      "apogee_km": 451.1666803171365,
      "perigee_km": 449.3175552520397,
      "latitude_deg": 3.383465668346192e-05,
      "longitude_deg": 32.24325652213699,
      "height_km": 452.44190960623087,
      "semi_major_axis_km": 6828.379117784588,
      "eccentricity": 0.0001354,
      "inclination_deg": 97.2042,
      "raan_deg": 189.1303,
      "arg_perigee_deg": 355.2742,
      "mean_anomaly_deg": 4.8491,
      "mean_motion_rev_day": 15.3860211
    },
    {
      "epoch": "2026-04-23T12:00:26.832384Z",
      "apogee_km": 451.07996666185863,
      "perigee_km": 449.33928454006036,
      "latitude_deg": -1.986291942498514e-06,
      "longitude_deg": 158.11094875582322,
      "height_km": 452.46756617903316,
      "semi_major_axis_km": 6828.346625600959,
      "eccentricity": 0.00012746,
      "inclination_deg": 97.2043,
      "raan_deg": 189.7694,
      "arg_perigee_deg": 352.7448,
      "mean_anomaly_deg": 7.3779,
      "mean_motion_rev_day": 15.38613092
    },
    {
      "epoch": "2026-04-24T19:13:28.274880Z",
      "apogee_km": 450.93738380931427,
      "perigee_km": 449.3491258220456,
      "latitude_deg": -1.0907095871109124e-05,
      "longitude_deg": 49.85139846583573,
      "height_km": 452.49601285654893,
      "semi_major_axis_km": 6828.28025481568,
      "eccentricity": 0.0001163,
      "inclination_deg": 97.2044,
      "raan_deg": 191.0479,
      "arg_perigee_deg": 345.4886,
      "mean_anomaly_deg": 14.6326,
      "mean_motion_rev_day": 15.38635525
    },
    {
      "epoch": "2026-04-25T18:38:13.074144Z",
      "apogee_km": 450.8273418552835,
      "perigee_km": 449.32650043541616,
      "latitude_deg": 7.40823737671979e-07,
      "longitude_deg": 58.66171825840738,
      "height_km": 452.49231105107185,
      "semi_major_axis_km": 6828.21392114535,
      "eccentricity": 0.0001099,
      "inclination_deg": 97.2046,
      "raan_deg": 192.0064,
      "arg_perigee_deg": 340.2583,
      "mean_anomaly_deg": 19.862,
      "mean_motion_rev_day": 15.38657946
    },
    {
      "epoch": "2026-04-26T21:10:22.200960Z",
      "apogee_km": 451.2821965260546,
      "perigee_km": 449.42785123205067,
      "latitude_deg": -1.6891927724700792e-06,
      "longitude_deg": 20.620101243123514,
      "height_km": 452.5616129720557,
      "semi_major_axis_km": 6828.492023879053,
      "eccentricity": 0.00013578,
      "inclination_deg": 97.2046,
      "raan_deg": 193.0926,
      "arg_perigee_deg": 350.6013,
      "mean_anomaly_deg": 9.5207,
      "mean_motion_rev_day": 15.3856395
    },
    {
      "epoch": "2026-04-27T19:01:31.593792Z",
      "apogee_km": 451.1849963284376,
      "perigee_km": 449.385024286521,
      "latitude_deg": -2.146806288758058e-07,
      "longitude_deg": 52.828110207807605,
      "height_km": 452.5331134205831,
      "semi_major_axis_km": 6828.4220103074795,
      "eccentricity": 0.0001318,
      "inclination_deg": 97.2048,
      "raan_deg": 193.9872,
      "arg_perigee_deg": 346.0354,
      "mean_anomaly_deg": 14.0855,
      "mean_motion_rev_day": 15.38587613
    },
    {
      "epoch": "2026-04-28T19:59:58.246656Z",
      "apogee_km": 451.0635648232537,
      "perigee_km": 449.37832608231474,
      "latitude_deg": -1.364667168758962e-05,
      "longitude_deg": 38.21411043736846,
      "height_km": 452.54652624825945,
      "semi_major_axis_km": 6828.3579454527835,
      "eccentricity": 0.0001234,
      "inclination_deg": 97.2049,
      "raan_deg": 195.0099,
      "arg_perigee_deg": 340.8681,
      "mean_anomaly_deg": 19.2518,
      "mean_motion_rev_day": 15.38609266
    }
  ]
}